[{"OBJECT_NAME":"ACS3","OBJECT_ID":"2024-077B","EPOCH":"2026-03-09T20:35:31.743456","MEAN_MOTION":13.89619668,"ECCENTRICITY":0.00598178,"INCLINATION":97.2069,"RA_OF_ASC_NODE":9.932,"ARG_OF_PERICENTER":76.3572,"MEAN_ANOMALY":284.4244,"EPHEMERIS_TYPE":0,"CLASSIFICATION_TYPE":"U","NORAD_CAT_ID":59588,"ELEMENT_SET_NO":999,"REV_AT_EPOCH":9422,"BSTAR":0.019401649,"MEAN_MOTION_DOT":0.00024147,"MEAN_MOTION_DDOT":0},{"OBJECT_NAME":"COSMOS 971","OBJECT_ID":"1977-122A","EPOCH":"2026-03-09T19:55:20.290080","MEAN_MOTION":13.73420767,"ECCENTRICITY":0.00200188,"INCLINATION":82.9377,"RA_OF_ASC_NODE":319.8463,"ARG_OF_PERICENTER":301.1272,"MEAN_ANOMALY":131.2356,"EPHEMERIS_TYPE":0,"CLASSIFICATION_TYPE":"U","NORAD_CAT_ID":10536,"ELEMENT_SET_NO":999,"REV_AT_EPOCH":41550,"BSTAR":4.7823958e-5,"MEAN_MOTION_DOT":5.9e-7,"MEAN_MOTION_DDOT":0}]
